{
"type": "FeatureCollection",
"name": "대구 지하철 노선",
"crs": { "type": "name", "properties": { "name": "urn:ogc:def:crs:OGC:1.3:CRS84" } },
"features": [
{ "type": "Feature", "properties": { "LINE_NM": "대구 도시철도 2호선", "begin": "531", "end": "559" }, "geometry": { "type": "LineString", "coordinates": [ [ 128.437092441158001, 35.864079250207197 ], [ 128.458543493312987, 35.864728706423001 ], [ 128.465657834284997, 35.857276646126302 ], [ 128.478343767187994, 35.853078409840499 ], [ 128.491979054502991, 35.851504212555703 ], [ 128.50725173472901, 35.851730981987799 ], [ 128.51576857519899, 35.850620025514402 ], [ 128.528391512290995, 35.848965259637303 ], [ 128.538390834452002, 35.850543243757002 ], [ 128.547903756876991, 35.854235263146698 ], [ 128.556606998098005, 35.857546722994201 ], [ 128.572554555685002, 35.862198717425002 ], [ 128.564742731081992, 35.860177179061999 ], [ 128.582469146487995, 35.8649080168924 ], [ 128.593340834492011, 35.864421315862103 ], [ 128.602801032774011, 35.863200471394101 ], [ 128.614226857944999, 35.859739551322697 ], [ 128.624455329434994, 35.859014746101103 ], [ 128.635950299761987, 35.858741953316397 ], [ 128.645371159227011, 35.858801975030701 ], [ 128.653680085609011, 35.854866783281302 ], [ 128.671839821117999, 35.846459873896201 ], [ 128.679988489576999, 35.842601082352303 ], [ 128.693851172119992, 35.842867360037097 ], [ 128.704365383724991, 35.840720759868397 ], [ 128.715361765209991, 35.836765904214403 ], [ 128.729197526853994, 35.833981240655802 ], [ 128.741387405801987, 35.834018570583098 ], [ 128.75214460434799, 35.8358301445178 ] ] } },
{ "type": "Feature", "properties": { "LINE_NM": "대구 도시철도 3호선", "begin": "560", "end": "589" }, "geometry": { "type": "LineString", "coordinates": [ [ 128.559883085981994, 35.958436779074503 ], [ 128.559190385855004, 35.951588137455403 ], [ 128.558361857539012, 35.944079541748202 ], [ 128.556638741006992, 35.937706706886601 ], [ 128.55454850000001, 35.9314767 ], [ 128.550325707989998, 35.925661416302297 ], [ 128.5473912, 35.9196705 ], [ 128.5473912, 35.9196705 ], [ 128.5457786, 35.9044295 ], [ 128.5467222, 35.8978246 ], [ 128.553658338665002, 35.891807522192501 ], [ 128.561073121915001, 35.889841388746099 ], [ 128.567891053718, 35.888839520341399 ], [ 128.574392089166992, 35.887781585790897 ], [ 128.581365449370992, 35.883983104954297 ], [ 128.582080902791006, 35.8756494594572 ], [ 128.582239145220001, 35.869799218336503 ], [ 128.582366910220003, 35.864153663216896 ], [ 128.583444429252012, 35.856686446033898 ], [ 128.590358222643005, 35.856888613878198 ], [ 128.599632942781994, 35.855353821420799 ], [ 128.606196541564998, 35.8549371407655 ], [ 128.616018084679013, 35.854269956282202 ], [ 128.625349732627996, 35.852441531780698 ], [ 128.624833412438988, 35.8450828543927 ], [ 128.624297684882009, 35.839187073241703 ], [ 128.623607482234007, 35.831418900856697 ], [ 128.631935342216991, 35.825173440284303 ], [ 128.640127908264986, 35.820820489073498 ], [ 128.646877213181995, 35.818381337055797 ] ] } },
{ "type": "Feature", "properties": { "LINE_NM": "대구 도시철도 1호선", "begin": "496", "end": "530" }, "geometry": { "type": "LineString", "coordinates": [ [ 128.489259151700992, 35.7986729223813 ], [ 128.500678990226987, 35.804434070967503 ], [ 128.512485512452002, 35.809438755980899 ], [ 128.523115492872989, 35.813890615941602 ], [ 128.530325569240006, 35.8161414091445 ], [ 128.53789714400699, 35.818951984165402 ], [ 128.545490846924992, 35.823732528371501 ], [ 128.551746354865003, 35.831068058057397 ], [ 128.557028988870996, 35.837128014015498 ], [ 128.565377667483006, 35.839313956040897 ], [ 128.573176350589989, 35.839266615530903 ], [ 128.581924140794996, 35.841175556581298 ], [ 128.58761831184799, 35.843950327515003 ], [ 128.590595753027003, 35.850094613892601 ], [ 128.591150709043006, 35.8579525546808 ], [ 128.593340834492011, 35.864421315862103 ], [ 128.59401292493601, 35.8709646122443 ], [ 128.597215197964005, 35.876343790787402 ], [ 128.605168503159007, 35.876127452949603 ], [ 128.617650223635991, 35.874633410352999 ], [ 128.627325264669992, 35.877429868291699 ], [ 128.63208348808601, 35.8842379937945 ], [ 128.639644975750997, 35.887119002957498 ], [ 128.650457826797009, 35.885961781757899 ], [ 128.659918132911997, 35.883502856740002 ], [ 128.670120750559988, 35.879637469614401 ], [ 128.681644193766004, 35.876245385039198 ], [ 128.692779243132009, 35.869778071948602 ], [ 128.702475235316001, 35.866700819325501 ], [ 128.713656558767013, 35.865988873507298 ], [ 128.724165388394994, 35.868002165186802 ], [ 128.733772871365005, 35.871280375369203 ], [ 128.750650836013989, 35.8719502592878 ], [ 128.803172477123013, 35.9001837673514 ], [ 128.817520120502991, 35.909373602516901 ] ] } }
]
}
