{
"type": "FeatureCollection",
"name": "대구 지하철정거장",
"crs": { "type": "name", "properties": { "name": "urn:ogc:def:crs:OGC:1.3:CRS84" } },
"features": [
{ "type": "Feature", "properties": { "STN_ID": "0115", "STN_KOR": "설화명곡", "LINE_ID": "S2701", "LINE_NM": "대구 도시철도 1호선", "STN_EN": "SeolhwaMyeonggok", "STN_HAN": "舌化椧谷", "TRSF_TYPE": "일반역", "TRSF_L_ID": null, "TRSF_L_NM": null, "LAT": 35.7986729223813, "LON": 128.48925915170099, "OPERATOR": "대구교통공사", "ADDR": "달성군 화원읍 비슬로 2476", "TEL": "053-643-2674", "BASE_DT": "2025-03-31" }, "geometry": { "type": "Point", "coordinates": [ 128.489259151700992, 35.7986729223813 ] } },
{ "type": "Feature", "properties": { "STN_ID": "0116", "STN_KOR": "화원", "LINE_ID": "S2701", "LINE_NM": "대구 도시철도 1호선", "STN_EN": "Hwawon", "STN_HAN": "花園", "TRSF_TYPE": "일반역", "TRSF_L_ID": null, "TRSF_L_NM": null, "LAT": 35.804434070967503, "LON": 128.50067899022699, "OPERATOR": "대구교통공사", "ADDR": "달성군 화원읍 비슬로 지하2600", "TEL": "053-643-5125", "BASE_DT": "2025-03-31" }, "geometry": { "type": "Point", "coordinates": [ 128.500678990226987, 35.804434070967503 ] } },
{ "type": "Feature", "properties": { "STN_ID": "0117", "STN_KOR": "대곡(정부대구청사)", "LINE_ID": "S2701", "LINE_NM": "대구 도시철도 1호선", "STN_EN": "Daegok\n(Central Government Office-Daegu)", "STN_HAN": "大谷(政府大邱廳舍)", "TRSF_TYPE": "일반역", "TRSF_L_ID": null, "TRSF_L_NM": null, "LAT": 35.809438755980899, "LON": 128.512485512452, "OPERATOR": "대구교통공사", "ADDR": "달서구 비슬로 지하2718 (대곡동)", "TEL": "053-644-7723", "BASE_DT": "2025-03-31" }, "geometry": { "type": "Point", "coordinates": [ 128.512485512452002, 35.809438755980899 ] } },
{ "type": "Feature", "properties": { "STN_ID": "0118", "STN_KOR": "진천", "LINE_ID": "S2701", "LINE_NM": "대구 도시철도 1호선", "STN_EN": "Jincheon", "STN_HAN": "辰泉", "TRSF_TYPE": "일반역", "TRSF_L_ID": null, "TRSF_L_NM": null, "LAT": 35.813890615941602, "LON": 128.52311549287299, "OPERATOR": "대구교통공사", "ADDR": "달서구 월배로 지하76 (진천동)", "TEL": "053-642-7723", "BASE_DT": "2025-03-31" }, "geometry": { "type": "Point", "coordinates": [ 128.523115492872989, 35.813890615941602 ] } },
{ "type": "Feature", "properties": { "STN_ID": "0119", "STN_KOR": "월배", "LINE_ID": "S2701", "LINE_NM": "대구 도시철도 1호선", "STN_EN": "Wolbae", "STN_HAN": "月背", "TRSF_TYPE": "일반역", "TRSF_L_ID": null, "TRSF_L_NM": null, "LAT": 35.8161414091445, "LON": 128.53032556924001, "OPERATOR": "대구교통공사", "ADDR": "달서구 월배로 지하143 (진천동)", "TEL": "053-642-7732", "BASE_DT": "2025-03-31" }, "geometry": { "type": "Point", "coordinates": [ 128.530325569240006, 35.8161414091445 ] } },
{ "type": "Feature", "properties": { "STN_ID": "0120", "STN_KOR": "상인", "LINE_ID": "S2701", "LINE_NM": "대구 도시철도 1호선", "STN_EN": "Sangin", "STN_HAN": "上仁", "TRSF_TYPE": "일반역", "TRSF_L_ID": null, "TRSF_L_NM": null, "LAT": 35.818951984165402, "LON": 128.53789714400699, "OPERATOR": "대구교통공사", "ADDR": "달서구 월배로 지하223 (상인동)", "TEL": "053-642-7745", "BASE_DT": "2025-03-31" }, "geometry": { "type": "Point", "coordinates": [ 128.53789714400699, 35.818951984165402 ] } },
{ "type": "Feature", "properties": { "STN_ID": "0121", "STN_KOR": "월촌", "LINE_ID": "S2701", "LINE_NM": "대구 도시철도 1호선", "STN_EN": "Wolchon", "STN_HAN": "月村", "TRSF_TYPE": "일반역", "TRSF_L_ID": null, "TRSF_L_NM": null, "LAT": 35.823732528371501, "LON": 128.54549084692499, "OPERATOR": "대구교통공사", "ADDR": "달서구 월배로 지하311 (송현동)", "TEL": "053-626-7710", "BASE_DT": "2025-03-31" }, "geometry": { "type": "Point", "coordinates": [ 128.545490846924992, 35.823732528371501 ] } },
{ "type": "Feature", "properties": { "STN_ID": "0122", "STN_KOR": "송현", "LINE_ID": "S2701", "LINE_NM": "대구 도시철도 1호선", "STN_EN": "Songhyeon", "STN_HAN": "松峴", "TRSF_TYPE": "일반역", "TRSF_L_ID": null, "TRSF_L_NM": null, "LAT": 35.831068058057397, "LON": 128.551746354865, "OPERATOR": "대구교통공사", "ADDR": "달서구 월배로 지하412 (송현동)", "TEL": "053-626-7730", "BASE_DT": "2025-03-31" }, "geometry": { "type": "Point", "coordinates": [ 128.551746354865003, 35.831068058057397 ] } },
{ "type": "Feature", "properties": { "STN_ID": "0123", "STN_KOR": "서부정류장(관문시장)", "LINE_ID": "S2701", "LINE_NM": "대구 도시철도 1호선", "STN_EN": "Seobu Bus Terminal\n(Gwanmun Market)", "STN_HAN": "西部客運站(關門市場)", "TRSF_TYPE": "일반역", "TRSF_L_ID": null, "TRSF_L_NM": null, "LAT": 35.837128014015498, "LON": 128.557028988871, "OPERATOR": "대구교통공사", "ADDR": "남구 월배로 지하501 (대명동)", "TEL": "053-651-7736", "BASE_DT": "2025-03-31" }, "geometry": { "type": "Point", "coordinates": [ 128.557028988870996, 35.837128014015498 ] } },
{ "type": "Feature", "properties": { "STN_ID": "0124", "STN_KOR": "대명", "LINE_ID": "S2701", "LINE_NM": "대구 도시철도 1호선", "STN_EN": "Daemyeong", "STN_HAN": "大明", "TRSF_TYPE": "일반역", "TRSF_L_ID": null, "TRSF_L_NM": null, "LAT": 35.839313956040897, "LON": 128.56537766748301, "OPERATOR": "대구교통공사", "ADDR": "남구 대명로 지하71 (대명동)", "TEL": "053-627-7746", "BASE_DT": "2025-03-31" }, "geometry": { "type": "Point", "coordinates": [ 128.565377667483006, 35.839313956040897 ] } },
{ "type": "Feature", "properties": { "STN_ID": "0125", "STN_KOR": "안지랑", "LINE_ID": "S2701", "LINE_NM": "대구 도시철도 1호선", "STN_EN": "Anjirang", "STN_HAN": "한자가없음", "TRSF_TYPE": "일반역", "TRSF_L_ID": null, "TRSF_L_NM": null, "LAT": 35.839266615530903, "LON": 128.57317635058999, "OPERATOR": "대구교통공사", "ADDR": "남구 대명로 지하141 (대명동)", "TEL": "053-626-7747", "BASE_DT": "2025-03-31" }, "geometry": { "type": "Point", "coordinates": [ 128.573176350589989, 35.839266615530903 ] } },
{ "type": "Feature", "properties": { "STN_ID": "0126", "STN_KOR": "현충로", "LINE_ID": "S2701", "LINE_NM": "대구 도시철도 1호선", "STN_EN": "Hyeonchungno", "STN_HAN": "顯忠路", "TRSF_TYPE": "일반역", "TRSF_L_ID": null, "TRSF_L_NM": null, "LAT": 35.841175556581298, "LON": 128.581924140795, "OPERATOR": "대구교통공사", "ADDR": "남구 대명로 지하222 (대명동)", "TEL": "053-651-7756", "BASE_DT": "2025-03-31" }, "geometry": { "type": "Point", "coordinates": [ 128.581924140794996, 35.841175556581298 ] } },
{ "type": "Feature", "properties": { "STN_ID": "0127", "STN_KOR": "영대병원", "LINE_ID": "S2701", "LINE_NM": "대구 도시철도 1호선", "STN_EN": "Yeungnam University Hospital", "STN_HAN": "嶺大病院", "TRSF_TYPE": "일반역", "TRSF_L_ID": null, "TRSF_L_NM": null, "LAT": 35.843950327515003, "LON": 128.58761831184799, "OPERATOR": "대구교통공사", "ADDR": "남구 대명로 지하292 (대명동)", "TEL": "053-626-7760", "BASE_DT": "2025-03-31" }, "geometry": { "type": "Point", "coordinates": [ 128.58761831184799, 35.843950327515003 ] } },
{ "type": "Feature", "properties": { "STN_ID": "0128", "STN_KOR": "교대", "LINE_ID": "S2701", "LINE_NM": "대구 도시철도 1호선", "STN_EN": "National University of Education", "STN_HAN": "敎大", "TRSF_TYPE": "일반역", "TRSF_L_ID": null, "TRSF_L_NM": null, "LAT": 35.850094613892601, "LON": 128.590595753027, "OPERATOR": "대구교통공사", "ADDR": "남구 중앙대로 지하194 (대명동)", "TEL": "053-473-7702", "BASE_DT": "2025-03-31" }, "geometry": { "type": "Point", "coordinates": [ 128.590595753027003, 35.850094613892601 ] } },
{ "type": "Feature", "properties": { "STN_ID": "0129", "STN_KOR": "명덕(2.28민주운동기념회관)", "LINE_ID": "S2701", "LINE_NM": "대구 도시철도 1호선", "STN_EN": "Myeongdeok\n(The 228 Movement for Democracy museum)", "STN_HAN": "明德(228民主運動紀念會館)", "TRSF_TYPE": "환승역", "TRSF_L_ID": "S0129+S0331", "TRSF_L_NM": "대구도시철도1호선+대구도시철도3호선", "LAT": 35.8579525546808, "LON": 128.59115070904301, "OPERATOR": "대구교통공사", "ADDR": "중구 명덕로 지하185 (남산동)", "TEL": "053-255-7723", "BASE_DT": "2025-03-31" }, "geometry": { "type": "Point", "coordinates": [ 128.591150709043006, 35.8579525546808 ] } },
{ "type": "Feature", "properties": { "STN_ID": "0130", "STN_KOR": "반월당", "LINE_ID": "S2701", "LINE_NM": "대구 도시철도 1호선", "STN_EN": "Banwoldang", "STN_HAN": "半月堂", "TRSF_TYPE": "환승역", "TRSF_L_ID": "S0130+S0230", "TRSF_L_NM": "대구도시철도1호선+대구도시철도2호선", "LAT": 35.864421315862103, "LON": 128.59334083449201, "OPERATOR": "대구교통공사", "ADDR": "중구 달구벌대로 지하2100 (덕산동)", "TEL": "053-255-7735", "BASE_DT": "2025-03-31" }, "geometry": { "type": "Point", "coordinates": [ 128.593340834492011, 35.864421315862103 ] } },
{ "type": "Feature", "properties": { "STN_ID": "0131", "STN_KOR": "중앙로", "LINE_ID": "S2701", "LINE_NM": "대구 도시철도 1호선", "STN_EN": "Jungangno", "STN_HAN": "中央路", "TRSF_TYPE": "일반역", "TRSF_L_ID": null, "TRSF_L_NM": null, "LAT": 35.8709646122443, "LON": 128.59401292493601, "OPERATOR": "대구교통공사", "ADDR": "중구 중앙대로 지하424 (남일동)", "TEL": "053-256-7746", "BASE_DT": "2025-03-31" }, "geometry": { "type": "Point", "coordinates": [ 128.59401292493601, 35.8709646122443 ] } },
{ "type": "Feature", "properties": { "STN_ID": "0132", "STN_KOR": "대구역", "LINE_ID": "S2701", "LINE_NM": "대구 도시철도 1호선", "STN_EN": "Daegu Station", "STN_HAN": "大邱驛", "TRSF_TYPE": "일반역", "TRSF_L_ID": null, "TRSF_L_NM": null, "LAT": 35.876343790787402, "LON": 128.597215197964, "OPERATOR": "대구교통공사", "ADDR": "북구 칠성남로30길 지하24 (칠성동)", "TEL": "053-426-7797", "BASE_DT": "2025-03-31" }, "geometry": { "type": "Point", "coordinates": [ 128.597215197964005, 35.876343790787402 ] } },
{ "type": "Feature", "properties": { "STN_ID": "0133", "STN_KOR": "칠성시장", "LINE_ID": "S2701", "LINE_NM": "대구 도시철도 1호선", "STN_EN": "Chilseong Market", "STN_HAN": "七星市場", "TRSF_TYPE": "일반역", "TRSF_L_ID": null, "TRSF_L_NM": null, "LAT": 35.876127452949603, "LON": 128.60516850315901, "OPERATOR": "대구교통공사", "ADDR": "북구 칠성남로 지하222 (칠성동)", "TEL": "053-427-7751", "BASE_DT": "2025-03-31" }, "geometry": { "type": "Point", "coordinates": [ 128.605168503159007, 35.876127452949603 ] } },
{ "type": "Feature", "properties": { "STN_ID": "0134", "STN_KOR": "신천(경북대입구)", "LINE_ID": "S2701", "LINE_NM": "대구 도시철도 1호선", "STN_EN": "Sincheon\n(Kyungpook Nat’l Univ.)", "STN_HAN": "新川(慶北大入口)", "TRSF_TYPE": "일반역", "TRSF_L_ID": null, "TRSF_L_NM": null, "LAT": 35.874633410352999, "LON": 128.61765022363599, "OPERATOR": "대구교통공사", "ADDR": "동구 동부로 지하41 (신천동)", "TEL": "053-756-7706", "BASE_DT": "2025-03-31" }, "geometry": { "type": "Point", "coordinates": [ 128.617650223635991, 35.874633410352999 ] } },
{ "type": "Feature", "properties": { "STN_ID": "0135", "STN_KOR": "동대구역", "LINE_ID": "S2701", "LINE_NM": "대구 도시철도 1호선", "STN_EN": "Dongdaegu Station", "STN_HAN": "東大邱驛", "TRSF_TYPE": "일반역", "TRSF_L_ID": null, "TRSF_L_NM": null, "LAT": 35.877429868291699, "LON": 128.62732526466999, "OPERATOR": "대구교통공사", "ADDR": "동구 동대구로 지하530 (신천동)", "TEL": "053-742-7787", "BASE_DT": "2025-03-31" }, "geometry": { "type": "Point", "coordinates": [ 128.627325264669992, 35.877429868291699 ] } },
{ "type": "Feature", "properties": { "STN_ID": "0136", "STN_KOR": "동구청(큰고개)", "LINE_ID": "S2701", "LINE_NM": "대구 도시철도 1호선", "STN_EN": "Dong-gu Office\n(Keungogae)", "STN_HAN": "東區廳", "TRSF_TYPE": "일반역", "TRSF_L_ID": null, "TRSF_L_NM": null, "LAT": 35.8842379937945, "LON": 128.63208348808601, "OPERATOR": "대구교통공사", "ADDR": "동구 신암남로 지하169 (신암동)", "TEL": "053-942-7721", "BASE_DT": "2025-03-31" }, "geometry": { "type": "Point", "coordinates": [ 128.63208348808601, 35.8842379937945 ] } },
{ "type": "Feature", "properties": { "STN_ID": "0137", "STN_KOR": "아양교(대구국제공항입구)", "LINE_ID": "S2701", "LINE_NM": "대구 도시철도 1호선", "STN_EN": "Ayanggyo\n(Daegu Int’l Airport)", "STN_HAN": "峨洋橋\n(大邱國際空港)", "TRSF_TYPE": "일반역", "TRSF_L_ID": null, "TRSF_L_NM": null, "LAT": 35.887119002957498, "LON": 128.639644975751, "OPERATOR": "대구교통공사", "ADDR": "동구 아양로 지하245 (신암동)", "TEL": "053-942-7724", "BASE_DT": "2025-03-31" }, "geometry": { "type": "Point", "coordinates": [ 128.639644975750997, 35.887119002957498 ] } },
{ "type": "Feature", "properties": { "STN_ID": "0138", "STN_KOR": "동촌\n(동촌유원지)", "LINE_ID": "S2701", "LINE_NM": "대구 도시철도 1호선", "STN_EN": "Dongchon\n(Dongchon Resort)", "STN_HAN": "東村(東村遊園地)", "TRSF_TYPE": "일반역", "TRSF_L_ID": null, "TRSF_L_NM": null, "LAT": 35.885961781757899, "LON": 128.65045782679701, "OPERATOR": "대구교통공사", "ADDR": "동구 해동로 지하197 (검사동)", "TEL": "053-981-7731", "BASE_DT": "2025-03-31" }, "geometry": { "type": "Point", "coordinates": [ 128.650457826797009, 35.885961781757899 ] } },
{ "type": "Feature", "properties": { "STN_ID": "0139", "STN_KOR": "해안", "LINE_ID": "S2701", "LINE_NM": "대구 도시철도 1호선", "STN_EN": "Haean", "STN_HAN": "解顔", "TRSF_TYPE": "일반역", "TRSF_L_ID": null, "TRSF_L_NM": null, "LAT": 35.883502856740002, "LON": 128.659918132912, "OPERATOR": "대구교통공사", "ADDR": "동구 동촌로 지하167 (방촌동)", "TEL": "053-981-7775", "BASE_DT": "2025-03-31" }, "geometry": { "type": "Point", "coordinates": [ 128.659918132911997, 35.883502856740002 ] } },
{ "type": "Feature", "properties": { "STN_ID": "0140", "STN_KOR": "방촌", "LINE_ID": "S2701", "LINE_NM": "대구 도시철도 1호선", "STN_EN": "Bangchon", "STN_HAN": "芳村", "TRSF_TYPE": "일반역", "TRSF_L_ID": null, "TRSF_L_NM": null, "LAT": 35.879637469614401, "LON": 128.67012075055999, "OPERATOR": "대구교통공사", "ADDR": "동구 동촌로 지하275 (방촌동)", "TEL": "053-984-7716", "BASE_DT": "2025-03-31" }, "geometry": { "type": "Point", "coordinates": [ 128.670120750559988, 35.879637469614401 ] } },
{ "type": "Feature", "properties": { "STN_ID": "0141", "STN_KOR": "용계", "LINE_ID": "S2701", "LINE_NM": "대구 도시철도 1호선", "STN_EN": "Yonggye", "STN_HAN": "龍溪", "TRSF_TYPE": "일반역", "TRSF_L_ID": null, "TRSF_L_NM": null, "LAT": 35.876245385039198, "LON": 128.681644193766, "OPERATOR": "대구교통공사", "ADDR": "동구 동촌로 지하383 (용계동)", "TEL": "053-985-7798", "BASE_DT": "2025-03-31" }, "geometry": { "type": "Point", "coordinates": [ 128.681644193766004, 35.876245385039198 ] } },
{ "type": "Feature", "properties": { "STN_ID": "0142", "STN_KOR": "율하", "LINE_ID": "S2701", "LINE_NM": "대구 도시철도 1호선", "STN_EN": "Yulha", "STN_HAN": "栗下", "TRSF_TYPE": "일반역", "TRSF_L_ID": null, "TRSF_L_NM": null, "LAT": 35.869778071948602, "LON": 128.69277924313201, "OPERATOR": "대구교통공사", "ADDR": "동구 안심로 지하57 (율하동)", "TEL": "053-962-7729", "BASE_DT": "2025-03-31" }, "geometry": { "type": "Point", "coordinates": [ 128.692779243132009, 35.869778071948602 ] } },
{ "type": "Feature", "properties": { "STN_ID": "0143", "STN_KOR": "신기", "LINE_ID": "S2701", "LINE_NM": "대구 도시철도 1호선", "STN_EN": "Singi", "STN_HAN": "新基", "TRSF_TYPE": "일반역", "TRSF_L_ID": null, "TRSF_L_NM": null, "LAT": 35.866700819325501, "LON": 128.702475235316, "OPERATOR": "대구교통공사", "ADDR": "동구 안심로 지하159 (신기동)", "TEL": "053-962-7773", "BASE_DT": "2025-03-31" }, "geometry": { "type": "Point", "coordinates": [ 128.702475235316001, 35.866700819325501 ] } },
{ "type": "Feature", "properties": { "STN_ID": "0144", "STN_KOR": "반야월", "LINE_ID": "S2701", "LINE_NM": "대구 도시철도 1호선", "STN_EN": "Banyawol", "STN_HAN": "半夜月", "TRSF_TYPE": "일반역", "TRSF_L_ID": null, "TRSF_L_NM": null, "LAT": 35.865988873507298, "LON": 128.71365655876701, "OPERATOR": "대구교통공사", "ADDR": "동구 안심로 지하261 (동호동)", "TEL": "053-962-7798", "BASE_DT": "2025-03-31" }, "geometry": { "type": "Point", "coordinates": [ 128.713656558767013, 35.865988873507298 ] } },
{ "type": "Feature", "properties": { "STN_ID": "0145", "STN_KOR": "각산", "LINE_ID": "S2701", "LINE_NM": "대구 도시철도 1호선", "STN_EN": "Gaksan", "STN_HAN": "角山", "TRSF_TYPE": "일반역", "TRSF_L_ID": null, "TRSF_L_NM": null, "LAT": 35.868002165186802, "LON": 128.72416538839499, "OPERATOR": "대구교통공사", "ADDR": "동구 안심로 지하363 (신서동)", "TEL": "053-963-7754", "BASE_DT": "2025-03-31" }, "geometry": { "type": "Point", "coordinates": [ 128.724165388394994, 35.868002165186802 ] } },
{ "type": "Feature", "properties": { "STN_ID": "0146", "STN_KOR": "안심(혁신도시·첨복단지)", "LINE_ID": "S2701", "LINE_NM": "대구 도시철도 1호선", "STN_EN": "Ansim\n(Innovation city · High-techMedical Complex)", "STN_HAN": "安心(革新都市尖複團地)", "TRSF_TYPE": "일반역", "TRSF_L_ID": null, "TRSF_L_NM": null, "LAT": 35.871280375369203, "LON": 128.73377287136501, "OPERATOR": "대구교통공사", "ADDR": "동구 안심로 지하455 (괴전동)", "TEL": "053-963-7769", "BASE_DT": "2025-03-31" }, "geometry": { "type": "Point", "coordinates": [ 128.733772871365005, 35.871280375369203 ] } },
{ "type": "Feature", "properties": { "STN_ID": "0147", "STN_KOR": "대구한의대병원", "LINE_ID": "S2701", "LINE_NM": "대구 도시철도 1호선", "STN_EN": "Daegu Haany University Hospital", "STN_HAN": "大邱韓醫大病院", "TRSF_TYPE": "일반역", "TRSF_L_ID": null, "TRSF_L_NM": null, "LAT": 35.8719502592878, "LON": 128.75065083601399, "OPERATOR": "대구교통공사", "ADDR": "동구 안심로 610 (사복동)", "TEL": "053-962-4613", "BASE_DT": "2025-03-31" }, "geometry": { "type": "Point", "coordinates": [ 128.750650836013989, 35.8719502592878 ] } },
{ "type": "Feature", "properties": { "STN_ID": "0148", "STN_KOR": "부호(경일대·호산대)", "LINE_ID": "S2701", "LINE_NM": "대구 도시철도 1호선", "STN_EN": "Buho(Kyungil UniversityHosan University)", "STN_HAN": "釜湖(慶一大瑚山大)", "TRSF_TYPE": "일반역", "TRSF_L_ID": null, "TRSF_L_NM": null, "LAT": 35.9001837673514, "LON": 128.80317247712301, "OPERATOR": "대구교통공사", "ADDR": "경산시 하양읍 대경로 528", "TEL": "053-857-8713", "BASE_DT": "2025-03-31" }, "geometry": { "type": "Point", "coordinates": [ 128.803172477123013, 35.9001837673514 ] } },
{ "type": "Feature", "properties": { "STN_ID": "0149", "STN_KOR": "하양(대구가톨릭대)", "LINE_ID": "S2701", "LINE_NM": "대구 도시철도 1호선", "STN_EN": "Hayang(Daegu Catholic University)", "STN_HAN": "河陽(大邱加立大)", "TRSF_TYPE": "일반역", "TRSF_L_ID": null, "TRSF_L_NM": null, "LAT": 35.909373602516901, "LON": 128.81752012050299, "OPERATOR": "대구교통공사", "ADDR": "경산시 하양읍 하양역길 3", "TEL": "053-857-8953", "BASE_DT": "2025-03-31" }, "geometry": { "type": "Point", "coordinates": [ 128.817520120502991, 35.909373602516901 ] } },
{ "type": "Feature", "properties": { "STN_ID": "0216", "STN_KOR": "문양", "LINE_ID": "S2702", "LINE_NM": "대구 도시철도 2호선", "STN_EN": "Munyang", "STN_HAN": "汶陽", "TRSF_TYPE": "일반역", "TRSF_L_ID": null, "TRSF_L_NM": null, "LAT": 35.864079250207197, "LON": 128.437092441158, "OPERATOR": "대구교통공사", "ADDR": "달성군 다사읍 문양역길 71", "TEL": "053-584-6826", "BASE_DT": "2025-03-31" }, "geometry": { "type": "Point", "coordinates": [ 128.437092441158001, 35.864079250207197 ] } },
{ "type": "Feature", "properties": { "STN_ID": "0217", "STN_KOR": "다사", "LINE_ID": "S2702", "LINE_NM": "대구 도시철도 2호선", "STN_EN": "Dasa", "STN_HAN": "多斯", "TRSF_TYPE": "일반역", "TRSF_L_ID": null, "TRSF_L_NM": null, "LAT": 35.864728706423001, "LON": 128.45854349331299, "OPERATOR": "대구교통공사", "ADDR": "달성군 다사읍 다사역로 지하30", "TEL": "053-588-6680", "BASE_DT": "2025-03-31" }, "geometry": { "type": "Point", "coordinates": [ 128.458543493312987, 35.864728706423001 ] } },
{ "type": "Feature", "properties": { "STN_ID": "0218", "STN_KOR": "대실", "LINE_ID": "S2702", "LINE_NM": "대구 도시철도 2호선", "STN_EN": "Daesil", "STN_HAN": "한자가없음", "TRSF_TYPE": "일반역", "TRSF_L_ID": null, "TRSF_L_NM": null, "LAT": 35.857276646126302, "LON": 128.465657834285, "OPERATOR": "대구교통공사", "ADDR": "달성군 다사읍 달구벌대로 지하888", "TEL": "053-587-1933", "BASE_DT": "2025-03-31" }, "geometry": { "type": "Point", "coordinates": [ 128.465657834284997, 35.857276646126302 ] } },
{ "type": "Feature", "properties": { "STN_ID": "0219", "STN_KOR": "강창", "LINE_ID": "S2702", "LINE_NM": "대구 도시철도 2호선", "STN_EN": "Gangchang", "STN_HAN": "江倉", "TRSF_TYPE": "일반역", "TRSF_L_ID": null, "TRSF_L_NM": null, "LAT": 35.853078409840499, "LON": 128.47834376718799, "OPERATOR": "대구교통공사", "ADDR": "달서구 달구벌대로 지하1014 (호산동)", "TEL": "053-585-0660", "BASE_DT": "2025-03-31" }, "geometry": { "type": "Point", "coordinates": [ 128.478343767187994, 35.853078409840499 ] } },
{ "type": "Feature", "properties": { "STN_ID": "0220", "STN_KOR": "계명대", "LINE_ID": "S2702", "LINE_NM": "대구 도시철도 2호선", "STN_EN": "Keimyung Univ.", "STN_HAN": "啓明大", "TRSF_TYPE": "일반역", "TRSF_L_ID": null, "TRSF_L_NM": null, "LAT": 35.851504212555703, "LON": 128.49197905450299, "OPERATOR": "대구교통공사", "ADDR": "달서구 달구벌대로 지하1140 (신당동)", "TEL": "053-588-0990", "BASE_DT": "2025-03-31" }, "geometry": { "type": "Point", "coordinates": [ 128.491979054502991, 35.851504212555703 ] } },
{ "type": "Feature", "properties": { "STN_ID": "0221", "STN_KOR": "성서산업단지", "LINE_ID": "S2702", "LINE_NM": "대구 도시철도 2호선", "STN_EN": "Seongseo Industrial Complex", "STN_HAN": "城西産業團地", "TRSF_TYPE": "일반역", "TRSF_L_ID": null, "TRSF_L_NM": null, "LAT": 35.851730981987799, "LON": 128.50725173472901, "OPERATOR": "대구교통공사", "ADDR": "달서구 달구벌대로 지하1280 (이곡동)", "TEL": "053-582-6215", "BASE_DT": "2025-03-31" }, "geometry": { "type": "Point", "coordinates": [ 128.50725173472901, 35.851730981987799 ] } },
{ "type": "Feature", "properties": { "STN_ID": "0222", "STN_KOR": "이곡", "LINE_ID": "S2702", "LINE_NM": "대구 도시철도 2호선", "STN_EN": "Igok", "STN_HAN": "梨谷", "TRSF_TYPE": "일반역", "TRSF_L_ID": null, "TRSF_L_NM": null, "LAT": 35.850620025514402, "LON": 128.51576857519899, "OPERATOR": "대구교통공사", "ADDR": "달서구 달구벌대로 지하1357 (이곡동)", "TEL": "053-582-6214", "BASE_DT": "2025-03-31" }, "geometry": { "type": "Point", "coordinates": [ 128.51576857519899, 35.850620025514402 ] } },
{ "type": "Feature", "properties": { "STN_ID": "0223", "STN_KOR": "용산(서부법원검찰청입구)", "LINE_ID": "S2702", "LINE_NM": "대구 도시철도 2호선", "STN_EN": "Yongsan\n(Seobu Branch CourtSeobu Prosecutor's Office)", "STN_HAN": "龍山\n(西部法院檢察廳入口)", "TRSF_TYPE": "일반역", "TRSF_L_ID": null, "TRSF_L_NM": null, "LAT": 35.848965259637303, "LON": 128.52839151229099, "OPERATOR": "대구교통공사", "ADDR": "달서구 달구벌대로 지하1476 (용산동)", "TEL": "053-553-3598", "BASE_DT": "2025-03-31" }, "geometry": { "type": "Point", "coordinates": [ 128.528391512290995, 35.848965259637303 ] } },
{ "type": "Feature", "properties": { "STN_ID": "0224", "STN_KOR": "죽전", "LINE_ID": "S2702", "LINE_NM": "대구 도시철도 2호선", "STN_EN": "Jukjeon", "STN_HAN": "竹田", "TRSF_TYPE": "일반역", "TRSF_L_ID": null, "TRSF_L_NM": null, "LAT": 35.850543243757002, "LON": 128.538390834452, "OPERATOR": "대구교통공사", "ADDR": "달서구 달구벌대로 지하1560 (죽전동)", "TEL": "053-556-0290", "BASE_DT": "2025-03-31" }, "geometry": { "type": "Point", "coordinates": [ 128.538390834452002, 35.850543243757002 ] } },
{ "type": "Feature", "properties": { "STN_ID": "0225", "STN_KOR": "감삼", "LINE_ID": "S2702", "LINE_NM": "대구 도시철도 2호선", "STN_EN": "Gamsam", "STN_HAN": "甘三", "TRSF_TYPE": "일반역", "TRSF_L_ID": null, "TRSF_L_NM": null, "LAT": 35.854235263146698, "LON": 128.54790375687699, "OPERATOR": "대구교통공사", "ADDR": "달서구 달구벌대로 지하1665 (감삼동)", "TEL": "053-552-2856", "BASE_DT": "2025-03-31" }, "geometry": { "type": "Point", "coordinates": [ 128.547903756876991, 35.854235263146698 ] } },
{ "type": "Feature", "properties": { "STN_ID": "0226", "STN_KOR": "두류", "LINE_ID": "S2702", "LINE_NM": "대구 도시철도 2호선", "STN_EN": "Duryu", "STN_HAN": "頭流", "TRSF_TYPE": "일반역", "TRSF_L_ID": null, "TRSF_L_NM": null, "LAT": 35.857546722994201, "LON": 128.556606998098, "OPERATOR": "대구교통공사", "ADDR": "달서구 달구벌대로 지하1760 (두류동)", "TEL": "053-628-3663", "BASE_DT": "2025-03-31" }, "geometry": { "type": "Point", "coordinates": [ 128.556606998098005, 35.857546722994201 ] } },
{ "type": "Feature", "properties": { "STN_ID": "0227", "STN_KOR": "내당", "LINE_ID": "S2702", "LINE_NM": "대구 도시철도 2호선", "STN_EN": "Naedang", "STN_HAN": "內唐", "TRSF_TYPE": "일반역", "TRSF_L_ID": null, "TRSF_L_NM": null, "LAT": 35.862198717425002, "LON": 128.572554555685, "OPERATOR": "대구교통공사", "ADDR": "달서구 달구벌대로 지하1900 (두류동)", "TEL": "053-656-6038", "BASE_DT": "2025-03-31" }, "geometry": { "type": "Point", "coordinates": [ 128.572554555685002, 35.862198717425002 ] } },
{ "type": "Feature", "properties": { "STN_ID": "0228", "STN_KOR": "반고개", "LINE_ID": "S2702", "LINE_NM": "대구 도시철도 2호선", "STN_EN": "Bangogae", "STN_HAN": "한자가없음", "TRSF_TYPE": "일반역", "TRSF_L_ID": null, "TRSF_L_NM": null, "LAT": 35.860177179061999, "LON": 128.56474273108199, "OPERATOR": "대구교통공사", "ADDR": "서구 달구벌대로 지하1827 (내당동)", "TEL": "053-655-1196", "BASE_DT": "2025-03-31" }, "geometry": { "type": "Point", "coordinates": [ 128.564742731081992, 35.860177179061999 ] } },
{ "type": "Feature", "properties": { "STN_ID": "0229", "STN_KOR": "청라언덕", "LINE_ID": "S2702", "LINE_NM": "대구 도시철도 2호선", "STN_EN": "Cheongna Hill", "STN_HAN": "靑蘿坡", "TRSF_TYPE": "환승역", "TRSF_L_ID": "S0229+S0329", "TRSF_L_NM": "대구도시철도2호선+대구도시철도3호선", "LAT": 35.8649080168924, "LON": 128.58246914648799, "OPERATOR": "대구교통공사", "ADDR": "중구 달구벌대로 지하2000 (동산동)", "TEL": "053-256-7728", "BASE_DT": "2025-03-31" }, "geometry": { "type": "Point", "coordinates": [ 128.582469146487995, 35.8649080168924 ] } },
{ "type": "Feature", "properties": { "STN_ID": "0230", "STN_KOR": "반월당", "LINE_ID": "S2702", "LINE_NM": "대구 도시철도 2호선", "STN_EN": "Banwoldang", "STN_HAN": "半月堂", "TRSF_TYPE": "환승역", "TRSF_L_ID": "S0230+S0130", "TRSF_L_NM": "대구도시철도2호선+대구도시철도1호선", "LAT": 35.864421315862103, "LON": 128.59334083449201, "OPERATOR": "대구교통공사", "ADDR": "중구 달구벌대로 지하2100 (덕산동)", "TEL": "053-252-0689", "BASE_DT": "2025-03-31" }, "geometry": { "type": "Point", "coordinates": [ 128.593340834492011, 35.864421315862103 ] } },
{ "type": "Feature", "properties": { "STN_ID": "0231", "STN_KOR": "경대병원", "LINE_ID": "S2702", "LINE_NM": "대구 도시철도 2호선", "STN_EN": "Kyungpook Nat'l Univ. Hosp.", "STN_HAN": "慶大病院", "TRSF_TYPE": "일반역", "TRSF_L_ID": null, "TRSF_L_NM": null, "LAT": 35.863200471394101, "LON": 128.60280103277401, "OPERATOR": "대구교통공사", "ADDR": "중구 달구벌대로 지하2190 (삼덕동)", "TEL": "053-427-0523", "BASE_DT": "2025-03-31" }, "geometry": { "type": "Point", "coordinates": [ 128.602801032774011, 35.863200471394101 ] } },
{ "type": "Feature", "properties": { "STN_ID": "0232", "STN_KOR": "대구은행(대구교육청)", "LINE_ID": "S2702", "LINE_NM": "대구 도시철도 2호선", "STN_EN": "Daegu Bank\n(Daegu Metropolitan Office Of Education)", "STN_HAN": "大邱銀行\n(大邱敎育廳)", "TRSF_TYPE": "일반역", "TRSF_L_ID": null, "TRSF_L_NM": null, "LAT": 35.859739551322697, "LON": 128.614226857945, "OPERATOR": "대구교통공사", "ADDR": "수성구 달구벌대로 지하2300 (수성동)", "TEL": "053-752-0206", "BASE_DT": "2025-03-31" }, "geometry": { "type": "Point", "coordinates": [ 128.614226857944999, 35.859739551322697 ] } },
{ "type": "Feature", "properties": { "STN_ID": "0233", "STN_KOR": "범어", "LINE_ID": "S2702", "LINE_NM": "대구 도시철도 2호선", "STN_EN": "Beomeo", "STN_HAN": "泛魚", "TRSF_TYPE": "일반역", "TRSF_L_ID": null, "TRSF_L_NM": null, "LAT": 35.859014746101103, "LON": 128.62445532943499, "OPERATOR": "대구교통공사", "ADDR": "수성구 달구벌대로 지하2396 (범어동)", "TEL": "053-756-9376", "BASE_DT": "2025-03-31" }, "geometry": { "type": "Point", "coordinates": [ 128.624455329434994, 35.859014746101103 ] } },
{ "type": "Feature", "properties": { "STN_ID": "0234", "STN_KOR": "수성구청\n(KBS)", "LINE_ID": "S2702", "LINE_NM": "대구 도시철도 2호선", "STN_EN": "Suseong-gu Office\n(KBS)", "STN_HAN": "壽城區廳", "TRSF_TYPE": "일반역", "TRSF_L_ID": null, "TRSF_L_NM": null, "LAT": 35.858741953316397, "LON": 128.63595029976199, "OPERATOR": "대구교통공사", "ADDR": "수성구 달구벌대로 지하2500 (범어동)", "TEL": "053-756-7822", "BASE_DT": "2025-03-31" }, "geometry": { "type": "Point", "coordinates": [ 128.635950299761987, 35.858741953316397 ] } },
{ "type": "Feature", "properties": { "STN_ID": "0235", "STN_KOR": "만촌", "LINE_ID": "S2702", "LINE_NM": "대구 도시철도 2호선", "STN_EN": "Manchon", "STN_HAN": "晩村", "TRSF_TYPE": "일반역", "TRSF_L_ID": null, "TRSF_L_NM": null, "LAT": 35.858801975030701, "LON": 128.64537115922701, "OPERATOR": "대구교통공사", "ADDR": "수성구 달구벌대로 지하2584 (만촌동)", "TEL": "053-751-0287", "BASE_DT": "2025-03-31" }, "geometry": { "type": "Point", "coordinates": [ 128.645371159227011, 35.858801975030701 ] } },
{ "type": "Feature", "properties": { "STN_ID": "0236", "STN_KOR": "담티(수성대·대륜)", "LINE_ID": "S2702", "LINE_NM": "대구 도시철도 2호선", "STN_EN": "Damti\n(Polytechnic Collegeㆍ Daeryun Middle & High School)", "STN_HAN": "한자가없음(壽城大ㆍ大倫)", "TRSF_TYPE": "일반역", "TRSF_L_ID": null, "TRSF_L_NM": null, "LAT": 35.854866783281302, "LON": 128.65368008560901, "OPERATOR": "대구교통공사", "ADDR": "수성구 달구벌대로 지하2672 (만촌동)", "TEL": "053-752-0959", "BASE_DT": "2025-03-31" }, "geometry": { "type": "Point", "coordinates": [ 128.653680085609011, 35.854866783281302 ] } },
{ "type": "Feature", "properties": { "STN_ID": "0237", "STN_KOR": "연호", "LINE_ID": "S2702", "LINE_NM": "대구 도시철도 2호선", "STN_EN": "Yeonho", "STN_HAN": "蓮湖", "TRSF_TYPE": "일반역", "TRSF_L_ID": null, "TRSF_L_NM": null, "LAT": 35.846459873896201, "LON": 128.671839821118, "OPERATOR": "대구교통공사", "ADDR": "수성구 달구벌대로 지하2870 (연호동)", "TEL": "053-791-0922", "BASE_DT": "2025-03-31" }, "geometry": { "type": "Point", "coordinates": [ 128.671839821117999, 35.846459873896201 ] } },
{ "type": "Feature", "properties": { "STN_ID": "0238", "STN_KOR": "수성알파시티(삼성라이온즈파크)", "LINE_ID": "S2702", "LINE_NM": "대구 도시철도 2호선", "STN_EN": "Suseong Alpha City\n(Samsung Lions Park)", "STN_HAN": "壽城알파시티", "TRSF_TYPE": "일반역", "TRSF_L_ID": null, "TRSF_L_NM": null, "LAT": 35.842601082352303, "LON": 128.679988489577, "OPERATOR": "대구교통공사", "ADDR": "수성구 달구벌대로 지하2950 (연호동)", "TEL": "053-791-0881", "BASE_DT": "2025-03-31" }, "geometry": { "type": "Point", "coordinates": [ 128.679988489576999, 35.842601082352303 ] } },
{ "type": "Feature", "properties": { "STN_ID": "0239", "STN_KOR": "고산", "LINE_ID": "S2702", "LINE_NM": "대구 도시철도 2호선", "STN_EN": "Gosan", "STN_HAN": "孤山", "TRSF_TYPE": "일반역", "TRSF_L_ID": null, "TRSF_L_NM": null, "LAT": 35.842867360037097, "LON": 128.69385117211999, "OPERATOR": "대구교통공사", "ADDR": "수성구 달구벌대로 지하3080 (시지동)", "TEL": "053-791-0858", "BASE_DT": "2025-03-31" }, "geometry": { "type": "Point", "coordinates": [ 128.693851172119992, 35.842867360037097 ] } },
{ "type": "Feature", "properties": { "STN_ID": "0240", "STN_KOR": "신매", "LINE_ID": "S2702", "LINE_NM": "대구 도시철도 2호선", "STN_EN": "Sinmae", "STN_HAN": "新梅", "TRSF_TYPE": "일반역", "TRSF_L_ID": null, "TRSF_L_NM": null, "LAT": 35.840720759868397, "LON": 128.70436538372499, "OPERATOR": "대구교통공사", "ADDR": "수성구 달구벌대로 지하3180 (매호동)", "TEL": "053-791-0898", "BASE_DT": "2025-03-31" }, "geometry": { "type": "Point", "coordinates": [ 128.704365383724991, 35.840720759868397 ] } },
{ "type": "Feature", "properties": { "STN_ID": "0241", "STN_KOR": "사월", "LINE_ID": "S2702", "LINE_NM": "대구 도시철도 2호선", "STN_EN": "Sawol", "STN_HAN": "沙月", "TRSF_TYPE": "일반역", "TRSF_L_ID": null, "TRSF_L_NM": null, "LAT": 35.836765904214403, "LON": 128.71536176520999, "OPERATOR": "대구교통공사", "ADDR": "수성구달구벌대로 지하3290 (신매동)", "TEL": "053-813-0767", "BASE_DT": "2025-03-31" }, "geometry": { "type": "Point", "coordinates": [ 128.715361765209991, 35.836765904214403 ] } },
{ "type": "Feature", "properties": { "STN_ID": "0242", "STN_KOR": "정평", "LINE_ID": "S2702", "LINE_NM": "대구 도시철도 2호선", "STN_EN": "Jeongpyeong", "STN_HAN": "正坪", "TRSF_TYPE": "일반역", "TRSF_L_ID": null, "TRSF_L_NM": null, "LAT": 35.833981240655802, "LON": 128.72919752685399, "OPERATOR": "대구교통공사", "ADDR": "경상북도 경산시 대학로 지하60(정평동, 정평역)", "TEL": "053-811-4753", "BASE_DT": "2025-03-31" }, "geometry": { "type": "Point", "coordinates": [ 128.729197526853994, 35.833981240655802 ] } },
{ "type": "Feature", "properties": { "STN_ID": "0243", "STN_KOR": "임당", "LINE_ID": "S2702", "LINE_NM": "대구 도시철도 2호선", "STN_EN": "Imdang", "STN_HAN": "林堂", "TRSF_TYPE": "일반역", "TRSF_L_ID": null, "TRSF_L_NM": null, "LAT": 35.834018570583098, "LON": 128.74138740580199, "OPERATOR": "대구교통공사", "ADDR": "경상북도 경산시 대학로 지하170(중방동, 임당역)", "TEL": "053-811-0732", "BASE_DT": "2025-03-31" }, "geometry": { "type": "Point", "coordinates": [ 128.741387405801987, 35.834018570583098 ] } },
{ "type": "Feature", "properties": { "STN_ID": "0244", "STN_KOR": "영남대", "LINE_ID": "S2702", "LINE_NM": "대구 도시철도 2호선", "STN_EN": "Yeungnam University", "STN_HAN": "嶺南大", "TRSF_TYPE": "일반역", "TRSF_L_ID": null, "TRSF_L_NM": null, "LAT": 35.8358301445178, "LON": 128.75214460434799, "OPERATOR": "대구교통공사", "ADDR": "경상북도 경산시 대학로 지하270 (대동, 영남대역)", "TEL": "053-801-3785", "BASE_DT": "2025-03-31" }, "geometry": { "type": "Point", "coordinates": [ 128.75214460434799, 35.8358301445178 ] } },
{ "type": "Feature", "properties": { "STN_ID": "0312", "STN_KOR": "칠곡경대병원", "LINE_ID": "S2703", "LINE_NM": "대구 도시철도 3호선", "STN_EN": "Chilgok Kyungpook \nNat‘l Univ. Medical Center", "STN_HAN": "漆谷慶大病院", "TRSF_TYPE": "일반역", "TRSF_L_ID": null, "TRSF_L_NM": null, "LAT": 35.958436779074503, "LON": 128.55988308598199, "OPERATOR": "대구교통공사", "ADDR": "북구 팔거천동로 386(동호동)", "TEL": "053-640-7381", "BASE_DT": "2025-03-31" }, "geometry": { "type": "Point", "coordinates": [ 128.559883085981994, 35.958436779074503 ] } },
{ "type": "Feature", "properties": { "STN_ID": "0313", "STN_KOR": "학정", "LINE_ID": "S2703", "LINE_NM": "대구 도시철도 3호선", "STN_EN": "Hakjeong", "STN_HAN": "鶴亭", "TRSF_TYPE": "일반역", "TRSF_L_ID": null, "TRSF_L_NM": null, "LAT": 35.951588137455403, "LON": 128.559190385855, "OPERATOR": "대구교통공사", "ADDR": "북구 팔거천동로 310(학정동)", "TEL": "053-640-7381", "BASE_DT": "2025-03-31" }, "geometry": { "type": "Point", "coordinates": [ 128.559190385855004, 35.951588137455403 ] } },
{ "type": "Feature", "properties": { "STN_ID": "0314", "STN_KOR": "팔거(국립농관원통계청)", "LINE_ID": "S2703", "LINE_NM": "대구 도시철도 3호선", "STN_EN": "Palgeo(NAQS · KOSTAT)", "STN_HAN": "八(國立農管院統計廳)", "TRSF_TYPE": "일반역", "TRSF_L_ID": null, "TRSF_L_NM": null, "LAT": 35.944079541748202, "LON": 128.55836185753901, "OPERATOR": "대구교통공사", "ADDR": "북구 팔거천동로 226(동천동)", "TEL": "053-640-7381", "BASE_DT": "2025-03-31" }, "geometry": { "type": "Point", "coordinates": [ 128.558361857539012, 35.944079541748202 ] } },
{ "type": "Feature", "properties": { "STN_ID": "0315", "STN_KOR": "동천", "LINE_ID": "S2703", "LINE_NM": "대구 도시철도 3호선", "STN_EN": "Dongcheon", "STN_HAN": "東川", "TRSF_TYPE": "일반역", "TRSF_L_ID": null, "TRSF_L_NM": null, "LAT": 35.937706706886601, "LON": 128.55663874100699, "OPERATOR": "대구교통공사", "ADDR": "북구 팔거천동로 147(동천동)", "TEL": "053-640-7381", "BASE_DT": "2025-03-31" }, "geometry": { "type": "Point", "coordinates": [ 128.556638741006992, 35.937706706886601 ] } },
{ "type": "Feature", "properties": { "STN_ID": "0316", "STN_KOR": "칠곡운암", "LINE_ID": "S2703", "LINE_NM": "대구 도시철도 3호선", "STN_EN": "Chilgok·Unam", "STN_HAN": "漆谷雲岩", "TRSF_TYPE": "일반역", "TRSF_L_ID": null, "TRSF_L_NM": null, "LAT": 35.9314767, "LON": 128.5545485, "OPERATOR": "대구교통공사", "ADDR": "북구 팔거천동로 79(구암동)", "TEL": "053-640-7381", "BASE_DT": "2025-03-31" }, "geometry": { "type": "Point", "coordinates": [ 128.55454850000001, 35.9314767 ] } },
{ "type": "Feature", "properties": { "STN_ID": "0317", "STN_KOR": "구암(과학대보건대입구)", "LINE_ID": "S2703", "LINE_NM": "대구 도시철도 3호선", "STN_EN": "Guam\n(Taegu Science Univ.\n·Daegu Health College)", "STN_HAN": "鳩岩(科學大·保健大入口)", "TRSF_TYPE": "일반역", "TRSF_L_ID": null, "TRSF_L_NM": null, "LAT": 35.925661416302297, "LON": 128.55032570799, "OPERATOR": "대구교통공사", "ADDR": "북구 팔거천동로 1(구암동)", "TEL": "053-640-7381", "BASE_DT": "2025-03-31" }, "geometry": { "type": "Point", "coordinates": [ 128.550325707989998, 35.925661416302297 ] } },
{ "type": "Feature", "properties": { "STN_ID": "0318", "STN_KOR": "태전", "LINE_ID": "S2703", "LINE_NM": "대구 도시철도 3호선", "STN_EN": "Taejeon", "STN_HAN": "太田", "TRSF_TYPE": "일반역", "TRSF_L_ID": null, "TRSF_L_NM": null, "LAT": 35.9196705, "LON": 128.5473912, "OPERATOR": "대구교통공사", "ADDR": "북구 칠곡중앙대로 262(태전동)", "TEL": "053-640-7431", "BASE_DT": "2025-03-31" }, "geometry": { "type": "Point", "coordinates": [ 128.5473912, 35.9196705 ] } },
{ "type": "Feature", "properties": { "STN_ID": "0319", "STN_KOR": "매천", "LINE_ID": "S2703", "LINE_NM": "대구 도시철도 3호선", "STN_EN": "Maecheon", "STN_HAN": "梅川", "TRSF_TYPE": "일반역", "TRSF_L_ID": null, "TRSF_L_NM": null, "LAT": 35.9196705, "LON": 128.5473912, "OPERATOR": "대구교통공사", "ADDR": "북구 학정로 6(매천동)", "TEL": "053-640-7431", "BASE_DT": "2025-03-31" }, "geometry": { "type": "Point", "coordinates": [ 128.5473912, 35.9196705 ] } },
{ "type": "Feature", "properties": { "STN_ID": "0320", "STN_KOR": "매천시장", "LINE_ID": "S2703", "LINE_NM": "대구 도시철도 3호선", "STN_EN": "Maecheon Market", "STN_HAN": "梅川市場", "TRSF_TYPE": "일반역", "TRSF_L_ID": null, "TRSF_L_NM": null, "LAT": 35.9044295, "LON": 128.5457786, "OPERATOR": "대구교통공사", "ADDR": "북구 매천로 18길 39(매천동)", "TEL": "053-640-7431", "BASE_DT": "2025-03-31" }, "geometry": { "type": "Point", "coordinates": [ 128.5457786, 35.9044295 ] } },
{ "type": "Feature", "properties": { "STN_ID": "0321", "STN_KOR": "팔달", "LINE_ID": "S2703", "LINE_NM": "대구 도시철도 3호선", "STN_EN": "Paldal", "STN_HAN": "八達", "TRSF_TYPE": "일반역", "TRSF_L_ID": null, "TRSF_L_NM": null, "LAT": 35.8978246, "LON": 128.5467222, "OPERATOR": "대구교통공사", "ADDR": "북구 매천로2길 43(팔달동)", "TEL": "053-640-7431", "BASE_DT": "2025-03-31" }, "geometry": { "type": "Point", "coordinates": [ 128.5467222, 35.8978246 ] } },
{ "type": "Feature", "properties": { "STN_ID": "0322", "STN_KOR": "공단", "LINE_ID": "S2703", "LINE_NM": "대구 도시철도 3호선", "STN_EN": "Gongdan", "STN_HAN": "工團", "TRSF_TYPE": "일반역", "TRSF_L_ID": null, "TRSF_L_NM": null, "LAT": 35.891807522192501, "LON": 128.553658338665, "OPERATOR": "대구교통공사", "ADDR": "서구 팔달로 28(비산동)", "TEL": "053-640-7431", "BASE_DT": "2025-03-31" }, "geometry": { "type": "Point", "coordinates": [ 128.553658338665002, 35.891807522192501 ] } },
{ "type": "Feature", "properties": { "STN_ID": "0323", "STN_KOR": "만평", "LINE_ID": "S2703", "LINE_NM": "대구 도시철도 3호선", "STN_EN": "Manpyeong", "STN_HAN": "萬坪", "TRSF_TYPE": "일반역", "TRSF_L_ID": null, "TRSF_L_NM": null, "LAT": 35.889841388746099, "LON": 128.561073121915, "OPERATOR": "대구교통공사", "ADDR": "북구 팔달로 105(노원동3가)", "TEL": "053-640-7431", "BASE_DT": "2025-03-31" }, "geometry": { "type": "Point", "coordinates": [ 128.561073121915001, 35.889841388746099 ] } },
{ "type": "Feature", "properties": { "STN_ID": "0324", "STN_KOR": "팔달시장", "LINE_ID": "S2703", "LINE_NM": "대구 도시철도 3호선", "STN_EN": "Paldal Market", "STN_HAN": "八達市場", "TRSF_TYPE": "일반역", "TRSF_L_ID": null, "TRSF_L_NM": null, "LAT": 35.888839520341399, "LON": 128.567891053718, "OPERATOR": "대구교통공사", "ADDR": "북구 팔달로 163-1(노원동3가)", "TEL": "053-640-7521", "BASE_DT": "2025-03-31" }, "geometry": { "type": "Point", "coordinates": [ 128.567891053718, 35.888839520341399 ] } },
{ "type": "Feature", "properties": { "STN_ID": "0325", "STN_KOR": "원대", "LINE_ID": "S2703", "LINE_NM": "대구 도시철도 3호선", "STN_EN": "Wondae", "STN_HAN": "院垈", "TRSF_TYPE": "일반역", "TRSF_L_ID": null, "TRSF_L_NM": null, "LAT": 35.887781585790897, "LON": 128.57439208916699, "OPERATOR": "대구교통공사", "ADDR": "서구 팔달로 224-2(원대동3가)", "TEL": "053-640-7521", "BASE_DT": "2025-03-31" }, "geometry": { "type": "Point", "coordinates": [ 128.574392089166992, 35.887781585790897 ] } },
{ "type": "Feature", "properties": { "STN_ID": "0326", "STN_KOR": "\n북구청(DGB대구은행파크)\n", "LINE_ID": "S2703", "LINE_NM": "대구 도시철도 3호선", "STN_EN": "Buk-gu Office\n(DGB Daegu Bank Park)", "STN_HAN": "北區廳(DGB大邱銀行Park)", "TRSF_TYPE": "일반역", "TRSF_L_ID": null, "TRSF_L_NM": null, "LAT": 35.883983104954297, "LON": 128.58136544937099, "OPERATOR": "대구교통공사", "ADDR": "서구 원대로 71(원대동2가)", "TEL": "053-640-7521", "BASE_DT": "2025-03-31" }, "geometry": { "type": "Point", "coordinates": [ 128.581365449370992, 35.883983104954297 ] } },
{ "type": "Feature", "properties": { "STN_ID": "0327", "STN_KOR": "달성공원", "LINE_ID": "S2703", "LINE_NM": "대구 도시철도 3호선", "STN_EN": "Dalseong Park", "STN_HAN": "達城公園", "TRSF_TYPE": "일반역", "TRSF_L_ID": null, "TRSF_L_NM": null, "LAT": 35.8756494594572, "LON": 128.58208090279101, "OPERATOR": "대구교통공사", "ADDR": "중구 달성로 116(수창동)", "TEL": "053-640-7521", "BASE_DT": "2025-03-31" }, "geometry": { "type": "Point", "coordinates": [ 128.582080902791006, 35.8756494594572 ] } },
{ "type": "Feature", "properties": { "STN_ID": "0328", "STN_KOR": "서문시장\n(동산병원)", "LINE_ID": "S2703", "LINE_NM": "대구 도시철도 3호선", "STN_EN": "Seomun Market\n(Dongsan Hospital)", "STN_HAN": "西門市場\n(東山病院)", "TRSF_TYPE": "일반역", "TRSF_L_ID": null, "TRSF_L_NM": null, "LAT": 35.869799218336503, "LON": 128.58223914522, "OPERATOR": "대구교통공사", "ADDR": "중구 달성로 50(대신동)", "TEL": "053-640-7521", "BASE_DT": "2025-03-31" }, "geometry": { "type": "Point", "coordinates": [ 128.582239145220001, 35.869799218336503 ] } },
{ "type": "Feature", "properties": { "STN_ID": "0329", "STN_KOR": "청라언덕(신남)", "LINE_ID": "S2703", "LINE_NM": "대구 도시철도 3호선", "STN_EN": "Cheongna Hill\n(sinnam)", "STN_HAN": "靑蘿坡\n(新南)", "TRSF_TYPE": "환승역", "TRSF_L_ID": "S0329+S0229", "TRSF_L_NM": "대구도시철도3호선+대구도시철도2호선", "LAT": 35.864153663216896, "LON": 128.58236691022, "OPERATOR": "대구교통공사", "ADDR": "중구 남산로 80(남산동)", "TEL": "053-640-7521", "BASE_DT": "2025-03-31" }, "geometry": { "type": "Point", "coordinates": [ 128.582366910220003, 35.864153663216896 ] } },
{ "type": "Feature", "properties": { "STN_ID": "0330", "STN_KOR": "남산(계명네거리)", "LINE_ID": "S2703", "LINE_NM": "대구 도시철도 3호선", "STN_EN": "Namsan\n(Gyemyeongnegeori)", "STN_HAN": "南山\n(계명네거리)", "TRSF_TYPE": "일반역", "TRSF_L_ID": null, "TRSF_L_NM": null, "LAT": 35.856686446033898, "LON": 128.58344442925201, "OPERATOR": "대구교통공사", "ADDR": "중구 남산로 2(남산동)", "TEL": "053-640-7581", "BASE_DT": "2025-03-31" }, "geometry": { "type": "Point", "coordinates": [ 128.583444429252012, 35.856686446033898 ] } },
{ "type": "Feature", "properties": { "STN_ID": "0331", "STN_KOR": "명덕(2·28민주운동기념회관)", "LINE_ID": "S2703", "LINE_NM": "대구 도시철도 3호선", "STN_EN": "Myeongdeok\n(2·28Democracy Movement Hall)", "STN_HAN": "明德\n(2·28民主運動紀念會館)", "TRSF_TYPE": "환승역", "TRSF_L_ID": "S0331+S0129", "TRSF_L_NM": "대구도시철도3호선+대구도시철도1호선", "LAT": 35.856888613878198, "LON": 128.590358222643, "OPERATOR": "대구교통공사", "ADDR": "남구 명덕로 186(대명동)", "TEL": "053-640-7581", "BASE_DT": "2025-03-31" }, "geometry": { "type": "Point", "coordinates": [ 128.590358222643005, 35.856888613878198 ] } },
{ "type": "Feature", "properties": { "STN_ID": "0332", "STN_KOR": "건들바위", "LINE_ID": "S2703", "LINE_NM": "대구 도시철도 3호선", "STN_EN": "Geondeulbawi", "STN_HAN": "한자가없음", "TRSF_TYPE": "일반역", "TRSF_L_ID": null, "TRSF_L_NM": null, "LAT": 35.855353821420799, "LON": 128.59963294278199, "OPERATOR": "대구교통공사", "ADDR": "남구 명덕로 260(이천동)", "TEL": "053-640-7581", "BASE_DT": "2025-03-31" }, "geometry": { "type": "Point", "coordinates": [ 128.599632942781994, 35.855353821420799 ] } },
{ "type": "Feature", "properties": { "STN_ID": "0333", "STN_KOR": "대봉교", "LINE_ID": "S2703", "LINE_NM": "대구 도시철도 3호선", "STN_EN": "Daebonggyo", "STN_HAN": "大鳳橋", "TRSF_TYPE": "일반역", "TRSF_L_ID": null, "TRSF_L_NM": null, "LAT": 35.8549371407655, "LON": 128.606196541565, "OPERATOR": "대구교통공사", "ADDR": "남구 명덕로 330(이천동)", "TEL": "053-640-7581", "BASE_DT": "2025-03-31" }, "geometry": { "type": "Point", "coordinates": [ 128.606196541564998, 35.8549371407655 ] } },
{ "type": "Feature", "properties": { "STN_ID": "0334", "STN_KOR": "수성시장", "LINE_ID": "S2703", "LINE_NM": "대구 도시철도 3호선", "STN_EN": "Suseong Market", "STN_HAN": "壽城市場", "TRSF_TYPE": "일반역", "TRSF_L_ID": null, "TRSF_L_NM": null, "LAT": 35.854269956282202, "LON": 128.61601808467901, "OPERATOR": "대구교통공사", "ADDR": "수성구 명덕로 420(수성동2가)", "TEL": "053-640-7581", "BASE_DT": "2025-03-31" }, "geometry": { "type": "Point", "coordinates": [ 128.616018084679013, 35.854269956282202 ] } },
{ "type": "Feature", "properties": { "STN_ID": "0335", "STN_KOR": "수성구민운동장", "LINE_ID": "S2703", "LINE_NM": "대구 도시철도 3호선", "STN_EN": "Suseong District Stadium", "STN_HAN": "壽城區民運動場", "TRSF_TYPE": "일반역", "TRSF_L_ID": null, "TRSF_L_NM": null, "LAT": 35.852441531780698, "LON": 128.625349732628, "OPERATOR": "대구교통공사", "ADDR": "수성구 동대구로 248(범어동)", "TEL": "053-640-7581", "BASE_DT": "2025-03-31" }, "geometry": { "type": "Point", "coordinates": [ 128.625349732627996, 35.852441531780698 ] } },
{ "type": "Feature", "properties": { "STN_ID": "0336", "STN_KOR": "어린이세상", "LINE_ID": "S2703", "LINE_NM": "대구 도시철도 3호선", "STN_EN": "Children's World", "STN_HAN": "童世界", "TRSF_TYPE": "일반역", "TRSF_L_ID": null, "TRSF_L_NM": null, "LAT": 35.8450828543927, "LON": 128.62483341243899, "OPERATOR": "대구교통공사", "ADDR": "수성구 동대구로 166(황금동)", "TEL": "053-640-7611", "BASE_DT": "2025-03-31" }, "geometry": { "type": "Point", "coordinates": [ 128.624833412438988, 35.8450828543927 ] } },
{ "type": "Feature", "properties": { "STN_ID": "0337", "STN_KOR": "황금", "LINE_ID": "S2703", "LINE_NM": "대구 도시철도 3호선", "STN_EN": "Hwanggeum", "STN_HAN": "黃金", "TRSF_TYPE": "일반역", "TRSF_L_ID": null, "TRSF_L_NM": null, "LAT": 35.839187073241703, "LON": 128.62429768488201, "OPERATOR": "대구교통공사", "ADDR": "수성구 동대구로 100(두산동)", "TEL": "053-640-7611", "BASE_DT": "2025-03-31" }, "geometry": { "type": "Point", "coordinates": [ 128.624297684882009, 35.839187073241703 ] } },
{ "type": "Feature", "properties": { "STN_ID": "0338", "STN_KOR": "수성못(TBC)", "LINE_ID": "S2703", "LINE_NM": "대구 도시철도 3호선", "STN_EN": "Suseongmot(TBC)", "STN_HAN": "한자가없음", "TRSF_TYPE": "일반역", "TRSF_L_ID": null, "TRSF_L_NM": null, "LAT": 35.831418900856697, "LON": 128.62360748223401, "OPERATOR": "대구교통공사", "ADDR": "수성구 동대구로 14(지산동)", "TEL": "053-640-7611", "BASE_DT": "2025-03-31" }, "geometry": { "type": "Point", "coordinates": [ 128.623607482234007, 35.831418900856697 ] } },
{ "type": "Feature", "properties": { "STN_ID": "0339", "STN_KOR": "지산", "LINE_ID": "S2703", "LINE_NM": "대구 도시철도 3호선", "STN_EN": "Jisan", "STN_HAN": "池山", "TRSF_TYPE": "일반역", "TRSF_L_ID": null, "TRSF_L_NM": null, "LAT": 35.825173440284303, "LON": 128.63193534221699, "OPERATOR": "대구교통공사", "ADDR": "수성구 지범로 100(지산동)", "TEL": "053-640-7611", "BASE_DT": "2025-03-31" }, "geometry": { "type": "Point", "coordinates": [ 128.631935342216991, 35.825173440284303 ] } },
{ "type": "Feature", "properties": { "STN_ID": "0340", "STN_KOR": "범물", "LINE_ID": "S2703", "LINE_NM": "대구 도시철도 3호선", "STN_EN": "Beommul", "STN_HAN": "凡勿", "TRSF_TYPE": "일반역", "TRSF_L_ID": null, "TRSF_L_NM": null, "LAT": 35.820820489073498, "LON": 128.64012790826499, "OPERATOR": "대구교통공사", "ADDR": "수성구 지범로 194(범물동)", "TEL": "053-640-7611", "BASE_DT": "2025-03-31" }, "geometry": { "type": "Point", "coordinates": [ 128.640127908264986, 35.820820489073498 ] } },
{ "type": "Feature", "properties": { "STN_ID": "0341", "STN_KOR": "용지", "LINE_ID": "S2703", "LINE_NM": "대구 도시철도 3호선", "STN_EN": "Yongji", "STN_HAN": "龍池", "TRSF_TYPE": "일반역", "TRSF_L_ID": null, "TRSF_L_NM": null, "LAT": 35.818381337055797, "LON": 128.64687721318199, "OPERATOR": "대구교통공사", "ADDR": "수성구 범안로 83(범물동)", "TEL": "053-640-7611", "BASE_DT": "2025-03-31" }, "geometry": { "type": "Point", "coordinates": [ 128.646877213181995, 35.818381337055797 ] } }
]
}
